{
    "links": {
        "self": "http://www.neowsapp.com/rest/v1/neo/3653650?api_key=iIulBulltgU6a56xZRHN4H3l9WmuAYTsLGpBGhQ2"
    },
    "id": "3653650",
    "neo_reference_id": "3653650",
    "name": "(2013 VY11)",
    "designation": "2013 VY11",
    "nasa_jpl_url": "http://ssd.jpl.nasa.gov/sbdb.cgi?sstr=3653650",
    "absolute_magnitude_h": 25.9,
    "estimated_diameter": {
        "kilometers": {
            "estimated_diameter_min": 0.0175612318,
            "estimated_diameter_max": 0.0392681082
        },
        "meters": {
            "estimated_diameter_min": 17.561231848,
            "estimated_diameter_max": 39.2681081809
        },
        "miles": {
            "estimated_diameter_min": 0.0109120402,
            "estimated_diameter_max": 0.0244000636
        },
        "feet": {
            "estimated_diameter_min": 57.6155918963,
            "estimated_diameter_max": 128.8323800441
        }
    },
    "is_potentially_hazardous_asteroid": false,
    "close_approach_data": [
        {
            "close_approach_date": "2013-10-26",
            "close_approach_date_full": "2013-Oct-26 08:29",
            "epoch_date_close_approach": 1382776140000,
            "relative_velocity": {
                "kilometers_per_second": "10.6346347899",
                "kilometers_per_hour": "38284.6852434848",
                "miles_per_hour": "23788.6145614309"
            },
            "miss_distance": {
                "astronomical": "0.0139949842",
                "lunar": "5.4440488538",
                "kilometers": "2093619.827003654",
                "miles": "1300915.0362682652"
            },
            "orbiting_body": "Earth"
        }
    ],
    "orbital_data": {
        "orbit_id": "4",
        "orbit_determination_date": "2017-04-06 08:43:44",
        "first_observation_date": "2013-11-06",
        "last_observation_date": "2013-11-10",
        "data_arc_in_days": 4,
        "observations_used": 11,
        "orbit_uncertainty": "8",
        "minimum_orbit_intersection": ".00619177",
        "jupiter_tisserand_invariant": "3.642",
        "epoch_osculation": "2456604.5",
        "eccentricity": ".5387999922612884",
        "semi_major_axis": "2.004157406729519",
        "inclination": ".7431870383606149",
        "ascending_node_longitude": "160.6415229731673",
        "orbital_period": "1036.325462686532",
        "perihelion_distance": ".9243174114932502",
        "perihelion_argument": "193.661259212654",
        "aphelion_distance": "3.083997401965787",
        "perihelion_time": "2456562.651350993268",
        "mean_anomaly": "14.53743460415248",
        "mean_motion": ".3473812165791518",
        "equinox": "J2000",
        "orbit_class": {
            "orbit_class_type": "APO",
            "orbit_class_description": "Near-Earth asteroid orbits which cross the Earth’s orbit similar to that of 1862 Apollo",
            "orbit_class_range": "a (semi-major axis) > 1.0 AU; q (perihelion) < 1.017 AU"
        }
    },
    "is_sentry_object": false
}